     2.100          NAVIGATION                              RINEX VERSION / TYPE
fic2rin                                 06/06/2009 01:50:10 PGM / RUN BY / DATE
                                                            END OF HEADER
 8 09  6  5 16  0  0.0 -.206420663744D-03 -.181898940355D-11  .000000000000D+00
     .350000000000D+02 -.116375000000D+03  .363872299599D-08  .240655858157D+00
    -.635348260403D-05  .106093297945D-01  .960007309914D-05  .515365224648D+04
     .489600000000D+06  .124797224998D-06  .267938192070D+01 -.558793544769D-08
     .988980518985D+00  .207218750000D+03  .299268572014D+01 -.767031949960D-08
    -.149649090628D-09  .100000000000D+01  .153400000000D+04  .000000000000D+00
     .240000000000D+01  .000000000000D+00 -.372529029846D-08  .350000000000D+02
     .482406000000D+06  .400000000000D+01
 9 09  6  5 16  0  0.0  .595911405981D-04  .204636307899D-11  .000000000000D+00
     .920000000000D+02 -.106250000000D+03  .411481425567D-08  .215733457022D-02
    -.537931919098D-05  .205996446311D-01  .846944749355D-05  .515363611794D+04
     .489600000000D+06 -.303611159325D-06  .258491402231D+01  .875443220139D-07
     .976632997393D+00  .227687500000D+03  .147897515442D+01 -.811783814054D-08
    -.148577617426D-09  .100000000000D+01  .153400000000D+04  .000000000000D+00
     .340000000000D+01  .000000000000D+00 -.558793544769D-08  .920000000000D+02
     .482406000000D+06  .400000000000D+01
10 09  6  5 16  0  0.0 -.170613639057D-04 -.568434188608D-12  .000000000000D+00
     .950000000000D+02  .134218750000D+03  .460876340207D-08 -.267678886476D+01
     .666640698910D-05  .858624756802D-02  .533834099770D-05  .515361970520D+04
     .489600000000D+06  .111758708954D-07  .547471276513D+00 -.242143869400D-06
     .958493780199D+00  .276875000000D+03  .625716544246D+00 -.810498046211D-08
     .318227541169D-09  .100000000000D+01  .153400000000D+04  .000000000000D+00
     .240000000000D+01  .000000000000D+00 -.279396772385D-08  .950000000000D+02
     .482406000000D+06  .400000000000D+01
11 09  6  5 16  0  0.0 -.529829412699D-05 -.147792889038D-11  .000000000000D+00
     .390000000000D+02  .124062500000D+02  .607418158547D-08  .788056291399D+00
     .564381480217D-06  .937642005738D-02  .909529626369D-05  .515368673515D+04
     .489600000000D+06 -.596046447754D-07 -.736994715794D+00  .912696123123D-07
     .889360742450D+00  .166843750000D+03  .696976486405D+00 -.872393481547D-08
    -.522164607395D-09  .100000000000D+01  .153400000000D+04  .000000000000D+00
     .240000000000D+01  .000000000000D+00 -.116415321827D-07  .390000000000D+02
     .482406000000D+06  .400000000000D+01
12 09  6  5 16  0  0.0 -.270888209343D-03  .568434188608D-11  .000000000000D+00
     .790000000000D+02  .625000000000D-01  .434410952103D-08  .987891910441D+00
    -.141561031342D-06  .332702056039D-02  .841543078423D-05  .515364388847D+04
     .489600000000D+06  .100582838058D-06 -.261274515370D+01 -.540167093277D-07
     .967237166110D+00  .218187500000D+03 -.692573528696D+00 -.779746765297D-08
     .423231915022D-09  .100000000000D+01  .153400000000D+04  .000000000000D+00
     .240000000000D+01  .000000000000D+00 -.116415321827D-07  .790000000000D+02
     .482406000000D+06  .400000000000D+01
13 09  6  5 16  0  0.0  .298761297017D-03  .909494701773D-12  .000000000000D+00
     .550000000000D+02 -.614375000000D+02  .413874382386D-08 -.299435999331D+01
    -.299327075481D-05  .415854901075D-02  .129267573357D-05  .515370152664D+04
     .489600000000D+06  .143423676491D-06  .162887728763D+01  .707805156708D-07
     .994591313063D+00  .372500000000D+03  .158268966060D+01 -.810212320024D-08
    -.170007081477D-09  .100000000000D+01  .153400000000D+04  .000000000000D+00
     .240000000000D+01  .000000000000D+00 -.111758708954D-07  .550000000000D+02
     .482406000000D+06  .400000000000D+01
14 09  6  5 16  0  0.0 -.994754955173D-04  .591171556152D-11  .000000000000D+00
     .430000000000D+02 -.472187500000D+02  .417445959728D-08 -.313685295847D+01
    -.239908695221D-05  .445889867842D-02  .141561031342D-05  .515361088562D+04
     .489600000000D+06  .242143869400D-07  .160930212272D+01 -.171363353729D-06
     .988095316033D+00  .363906250000D+03 -.215709231244D+01 -.805176395972D-08
    -.204294223960D-09  .100000000000D+01  .153400000000D+04  .000000000000D+00
     .240000000000D+01  .000000000000D+00 -.931322574615D-08  .430000000000D+02
     .482406000000D+06  .400000000000D+01
15 09  6  5 16  0  0.0 -.298338942230D-03 -.329691829393D-11  .000000000000D+00
     .830000000000D+02 -.375937500000D+02  .500949437983D-08 -.297093461233D+01
    -.193342566490D-05  .143290462438D-02  .553205609322D-06  .515362118340D+04
     .489600000000D+06 -.111758708954D-07  .155650899631D+01  .577419996262D-07
     .956118266026D+00  .367531250000D+03 -.461492568846D+00 -.846678124685D-08
    -.112147528538D-09  .100000000000D+01  .153400000000D+04  .000000000000D+00
     .240000000000D+01  .000000000000D+00 -.977888703346D-08  .830000000000D+02
     .482406000000D+06  .400000000000D+01
16 09  6  5 16  0  0.0  .446918420494D-04 -.341060513165D-11  .000000000000D+00
     .650000000000D+02  .450000000000D+01  .424517682865D-08 -.147071524245D+01
     .232830643654D-06  .535554264206D-02  .859238207340D-05  .515355346489D+04
     .489600000000D+06 -.117346644402D-06 -.259578933336D+01  .335276126862D-07
     .968671231056D+00  .220718750000D+03 -.349377848075D+00 -.774210820417D-08
     .549308595194D-09  .100000000000D+01  .153400000000D+04  .000000000000D+00
     .240000000000D+01  .000000000000D+00 -.977888703346D-08  .650000000000D+02
     .482406000000D+06  .400000000000D+01
18 09  6  5 16  0  0.0 -.507803633809D-04  .329691829393D-11  .000000000000D+00
     .340000000000D+02  .113343750000D+03  .493234830925D-08 -.128721541956D+01
     .604800879955D-05  .104376783129D-01  .459887087345D-05  .515360551643D+04
     .489600000000D+06  .191852450371D-06  .552780203297D+00  .298023223877D-07
     .942533547300D+00  .278468750000D+03 -.241902993625D+01 -.828355932921D-08
     .329299430929D-09  .100000000000D+01  .153400000000D+04  .000000000000D+00
     .240000000000D+01  .000000000000D+00 -.107102096081D-07  .340000000000D+02
     .482406000000D+06  .400000000000D+01
19 09  6  5 16  0  0.0  .234851613641D-04 -.125055521494D-11  .000000000000D+00
     .980000000000D+02 -.790625000000D+01  .479055668877D-08  .308451209173D+01
    -.322237610817D-06  .564060383476D-02  .570155680180D-05  .515360437012D+04
     .489600000000D+06 -.335276126862D-07 -.149729456801D+01  .596046447754D-07
     .956941926941D+00  .265906250000D+03 -.354818298509D+00 -.800783355841D-08
    -.200365488884D-09  .100000000000D+01  .153400000000D+04  .000000000000D+00
     .240000000000D+01  .000000000000D+00 -.144354999065D-07  .980000000000D+02
     .482406000000D+06  .400000000000D+01
20 09  6  5 16  0  0.0  .807228498161D-04 -.102318153949D-11  .000000000000D+00
     .170000000000D+02  .130562500000D+03  .499163649312D-08 -.114040005081D+01
     .693090260029D-05  .395236304030D-02  .518932938576D-05  .515360422325D+04
     .489600000000D+06  .223517417908D-07  .498950542379D+00  .540167093277D-07
     .942214013807D+00  .274781250000D+03  .136242506645D+01 -.837499170916D-08
     .288226291496D-09  .100000000000D+01  .153400000000D+04  .000000000000D+00
     .240000000000D+01  .000000000000D+00 -.651925802231D-08  .170000000000D+02
     .482406000000D+06  .400000000000D+01
21 09  6  5 16  0  0.0  .100466422737D-04 -.216004991671D-11  .000000000000D+00
     .840000000000D+02  .354375000000D+02  .499556522820D-08 -.450274774037D-02
     .203773379326D-05  .153357746312D-01  .997073948383D-05  .515361229324D+04
     .489600000000D+06  .154599547386D-06 -.505048280442D+00  .230967998505D-06
     .934156932506D+00  .175937500000D+03 -.259624362648D+01 -.830784605514D-08
    -.249653256203D-09  .100000000000D+01  .153400000000D+04  .000000000000D+00
     .240000000000D+01  .000000000000D+00 -.121071934700D-07  .840000000000D+02
     .482406000000D+06  .400000000000D+01
23 09  6  5 16  0  0.0  .390186905861D-03  .000000000000D+00  .000000000000D+00
     .300000000000D+02 -.497812500000D+02  .470198157069D-08  .254579110756D+01
    -.244937837124D-05  .615699146874D-02  .895932316780D-06  .515360693550D+04
     .489600000000D+06 -.121071934700D-06  .157661026607D+01  .197440385818D-06
     .970089720314D+00  .370281250000D+03  .288658919858D+01 -.836820571221D-08
    -.128576784311D-09  .100000000000D+01  .153400000000D+04  .000000000000D+00
     .240000000000D+01  .000000000000D+00 -.200234353542D-07  .300000000000D+02
     .482406000000D+06  .400000000000D+01
24 09  6  5 16  0  0.0  .194435473531D-03  .295585778076D-11  .000000000000D+00
     .250000000000D+02  .414062500000D+02  .452447417680D-08 -.136487597942D+01
     .204145908356D-05  .669713458046D-02  .106953084469D-04  .515368143654D+04
     .489600000000D+06 -.111758708954D-06 -.472780222383D+00 -.260770320892D-07
     .950817698356D+00  .171218750000D+03 -.650137451212D+00 -.790318634229D-08
    -.202508435289D-09  .100000000000D+01  .153400000000D+04  .000000000000D+00
     .240000000000D+01  .000000000000D+00 -.139698386192D-08  .250000000000D+02
     .482406000000D+06  .400000000000D+01
25 09  6  5 16  0  0.0  .448105391115D-03  .184172677109D-10  .000000000000D+00
     .110000000000D+03 -.119812500000D+03  .415481592190D-08 -.868531629989D+00
    -.622496008873D-05  .113816835219D-01  .888109207153D-05  .515365902328D+04
     .489600000000D+06 -.119209289551D-06  .252439273856D+01 -.745058059692D-07
     .969922561442D+00  .210843750000D+03 -.120795896530D+01 -.808283668259D-08
    -.118576367753D-09  .100000000000D+01  .153400000000D+04  .000000000000D+00
     .240000000000D+01  .000000000000D+00 -.745058059692D-08  .110000000000D+03
     .482406000000D+06  .400000000000D+01
